[{"OBJECT_NAME":"ONEWEB-0671","OBJECT_ID":"2023-029AL","EPOCH":"2026-03-09T17:50:38.622048","MEAN_MOTION":13.19725147,"ECCENTRICITY":0.00016026,"INCLINATION":87.9227,"RA_OF_ASC_NODE":324.7913,"ARG_OF_PERICENTER":84.1865,"MEAN_ANOMALY":275.945,"EPHEMERIS_TYPE":0,"CLASSIFICATION_TYPE":"U","NORAD_CAT_ID":55830,"ELEMENT_SET_NO":999,"REV_AT_EPOCH":14578,"BSTAR":-0.00024057224,"MEAN_MOTION_DOT":-8.3e-7,"MEAN_MOTION_DDOT":0},{"OBJECT_NAME":"FENGYUN 1C DEB","OBJECT_ID":"1999-025EYP","EPOCH":"2026-03-09T19:09:01.653984","MEAN_MOTION":13.40635008,"ECCENTRICITY":0.03603046,"INCLINATION":98.6854,"RA_OF_ASC_NODE":181.6853,"ARG_OF_PERICENTER":342.634,"MEAN_ANOMALY":16.2727,"EPHEMERIS_TYPE":0,"CLASSIFICATION_TYPE":"U","NORAD_CAT_ID":43358,"ELEMENT_SET_NO":999,"REV_AT_EPOCH":54897,"BSTAR":0.0017721435,"MEAN_MOTION_DOT":1.389e-5,"MEAN_MOTION_DDOT":0}]
